SCD 1                   
1 22490U 93009B   24154.32335368  .00000521  00000+0  93133-4 0  9997
2 22490  24.9686 124.2422 0042517 178.0151 331.9106 14.45289365653209
TECHSAT 1B (GO-32)      
1 25397U 98043D   24154.83371008  .00000143  00000+0  82216-4 0  9996
2 25397  98.9208 121.3429 0001330 151.5882 208.5369 14.24050391345377
SCD 2                   
1 25504U 98060A   24154.86003656  .00000544  00000+0  10247-3 0  9998
2 25504  24.9965 340.2658 0017018 180.2197 309.9443 14.44774284352531
LANDSAT 7               
1 25682U 99020A   24154.91500208  .00000673  00000+0  14719-3 0  9994
2 25682  97.8880 182.3772 0001715  83.1494  37.3151 14.60676386337053
DLR-TUBSAT              
1 25757U 99029B   24154.83043124  .00000212  00000+0  64157-4 0  9997
2 25757  98.5852 118.4327 0015573  94.6524 265.6449 14.51904303325211
TERRA                   
1 25994U 99068A   24154.89852024  .00000684  00000+0  15254-3 0  9992
2 25994  98.0485 218.8055 0003132  68.3544 346.2860 14.59788052300969
MAROC-TUBSAT            
1 27004U 01056D   24154.43888663 -.00000004  00000+0  48421-4 0  9994
2 27004  99.7316 308.7579 0019063 251.1178 172.1973 13.70205444124190
AQUA                    
1 27424U 02022A   24154.97785022  .00001321  00000+0  28942-3 0  9995
2 27424  98.3300 104.2945 0001871 105.0160 330.6554 14.59336168174609
IRS-P6 (RESOURCESAT-1)  
1 28051U 03046A   24154.95922775  .00000404  00000+0  15116-3 0  9995
2 28051  98.2944 212.7898 0065772  52.6078  69.0693 14.35471617 73727
SHIYAN 1 (SY-1)         
1 28220U 04012A   24154.03311445  .00008263  00000+0  49173-3 0  9993
2 28220  97.9655 181.1553 0010957  86.1946 274.0535 15.11463002 97709
AURA                    
1 28376U 04026A   24154.89624887  .00001285  00000+0  28584-3 0  9991
2 28376  98.2506  99.8320 0002188  93.0942 267.0507 14.58623688 57599
IRS-P5 (CARTOSAT-1)     
1 28649U 05017A   24154.07189483  .00001985  00000+0  22775-3 0  9996
2 28649  97.6147 198.1248 0002157  61.3141 298.8292 14.86941948 32918
SINAH 1                 
1 28893U 05043D   24154.35148017  .00000645  00000+0  13582-3 0  9993
2 28893  98.1923 278.2897 0016116  89.7958 270.5091 14.62735192991562
EROS B                  
1 29079U 06014A   24154.87060006  .00017716  00000+0  89703-3 0  9992
2 29079  97.3336 269.6383 0010273 253.6059 106.4046 15.17009355  5350
RESURS-DK 1             
1 29228U 06021A   24154.28753021  .00003219  00000+0  22011-3 0  9999
2 29228  69.9347  99.9631 0003320 350.5020   9.6079 15.07187512990076
ARIRANG-2 (KOMPSAT-2)   
1 29268U 06031A   24154.89757042  .00000471  00000+0  99418-4 0  9991
2 29268  97.8654   3.8517 0013289 273.8458 144.0615 14.63569581952557
LAPAN-TUBSAT            
1 29709U 07001A   24154.91659315  .00000983  00000+0  12466-3 0  9991
2 29709  98.0678 129.9648 0014028  87.7913 272.4906 14.83988190940684
HAIYANG-1B              
1 31113U 07010A   24154.40884161  .00000164  00000+0  78509-4 0  9998
2 31113  98.2945 157.1145 0012396 248.2455 111.7409 14.30608651894124
COSMO-SKYMED 1          
1 31598U 07023A   24154.89122440  .00000825  00000+0  11017-3 0  9991
2 31598  97.8866 338.2466 0001494  89.1593 270.9792 14.82157677919000
TERRASAR-X              
1 31698U 07026A   24154.55091298  .00002353  00000+0  11521-3 0  9992
2 31698  97.4442 161.9096 0001857  84.7781 275.3665 15.19147921940172
WORLDVIEW-1 (WV-1)      
1 32060U 07041A   24154.30827600  .00008761  00000+0  36514-3 0  9998
2 32060  97.3789 273.8778 0005597 346.9119  13.1972 15.23926623929458
YAOGAN-3                
1 32289U 07055A   24154.92790539  .00002850  00000+0  33943-3 0  9990
2 32289  97.8878 180.3694 0001553  81.5811 278.5580 14.85115204895156
COSMO-SKYMED 2          
1 32376U 07059A   24154.92498924  .00000732  00000+0  98439-4 0  9993
2 32376  97.8865 338.2769 0001498  90.4806 269.6579 14.82157268891751
RADARSAT-2              
1 32382U 07061A   24154.96773611  .00000138  00000+0  70293-4 0  9994
2 32382  98.5772 161.5442 0001266  89.8515 270.2812 14.29984867859598
CARTOSAT-2A             
1 32783U 08021A   24154.89724123  .00001301  00000+0  18395-3 0  9999
2 32783  97.8666 213.6510 0011999  13.7660 346.3876 14.78737338868805
HUANJING 1A (HJ-1A)     
1 33320U 08041A   24154.96514934  .00002287  00000+0  30848-3 0  9995
2 33320  97.6307 162.6813 0021759  60.4257 299.9121 14.79893136848150
HUANJING 1B (HJ-1B)     
1 33321U 08041B   24154.90455324  .00001591  00000+0  21302-3 0  9999
2 33321  97.6263 167.1634 0040023 102.4035 258.1661 14.80206525848179
GEOEYE 1                
1 33331U 08042A   24154.89478806  .00000860  00000+0  17105-3 0  9993
2 33331  98.1098 227.4457 0006418 200.6854 159.4089 14.64567963841207
THEOS                   
1 33396U 08049A   24154.93094227  .00000107  00000+0  70590-4 0  9999
2 33396  98.6579 221.1075 0001140  89.5511 270.5796 14.20076247812339
COSMO-SKYMED 3          
1 33412U 08054A   24154.85858874  .00003854  00000+0  33544-3 0  9990
2 33412  97.8773 351.4771 0015171 261.7621  98.1880 14.97457527845141
YAOGAN-4                
1 33446U 08061A   24154.41832500  .00000614  00000+0  88345-4 0  9996
2 33446  97.8793  86.5784 0014509 339.5028  20.5600 14.79773149835373
GOSAT (IBUKI)           
1 33492U 09002A   24154.45934404  .00001250  00000+0  22862-3 0  9991
2 33492  98.0370 266.2374 0001101 103.8565 256.2762 14.67566027822232
YAOGAN-6                
1 34839U 09021A   24154.88891534  .00018156  00000+0  35227-3 0  9993
2 34839  97.1693 122.4984 0015614 224.2025 135.7979 15.47580873841224
DEIMOS-1                
1 35681U 09041A   24154.93330721  .00000853  00000+0  13897-3 0  9997
2 35681  97.6800 337.6210 0002840  82.1417 278.0114 14.73306281797218
DUBAISAT-1              
1 35682U 09041B   24154.38635654  .00001417  00000+0  23575-3 0  9991
2 35682  97.9049 291.0618 0010055 304.8442  55.1819 14.71543988795401
OCEANSAT-2              
1 35931U 09051A   24154.91622811  .00000278  00000+0  21663-3 0  9999
2 35931  98.2643 205.0732 0016811 170.7080 189.4400 13.99462779775220
WORLDVIEW-2 (WV-2)      
1 35946U 09055A   24154.85302587  .00000228  00000+0  91781-4 0  9991
2 35946  98.4362 227.9353 0002880 279.7279  80.3583 14.36801695768723
SMOS                    
1 36036U 09059A   24154.46770855  .00000491  00000+0  17057-3 0  9995
2 36036  98.4431 341.6296 0001236  82.7712 277.3616 14.39785610766295
YAOGAN-7                
1 36110U 09069A   24154.23101339  .00000692  00000+0  10734-3 0  9997
2 36110  98.1077  30.0151 0024018 276.7662  83.0814 14.76227625779645
TANDEM-X                
1 36605U 10030A   24154.55091186  .00002225  00000+0  10912-3 0  9991
2 36605  97.4450 161.9098 0001792  97.8742 262.2696 15.19147810773592
CARTOSAT-2B             
1 36795U 10035A   24154.93390475  .00001292  00000+0  18264-3 0  9992
2 36795  97.8606 213.3356 0013700  86.9134 273.3645 14.78739800749864
YAOGAN-10               
1 36834U 10038A   24154.95012892  .00001051  00000+0  13658-3 0  9990
2 36834  97.9484 172.1660 0001579  84.2707 314.8947 14.82807840746825
COSMO-SKYMED 4          
1 37216U 10060A   24154.93763693  .00000761  00000+0  10215-3 0  9993
2 37216  97.8867 338.2931 0001474  86.4272 273.7110 14.82159868734322
RESOURCESAT-2           
1 37387U 11015A   24154.94565858  .00000236  00000+0  12674-3 0  9995
2 37387  98.5774 221.1030 0005038 145.7020 214.4484 14.21686996680434
HAIYANG-2A              
1 37781U 11043A   24154.46449017  .00000024  00000+0  66615-4 0  9999
2 37781  99.3251 158.1963 0001640 102.0318 258.1017 13.78783173644057
RASAT                   
1 37791U 11044D   24154.93029372  .00000846  00000+0  16147-3 0  9997
2 37791  98.0776 246.6371 0021911  32.3799  78.0619 14.66333370684030
SRMSAT                  
1 37841U 11058D   24154.56216067  .00000513  00000+0  13597-3 0  9993
2 37841  19.9715 245.2432 0011674 294.4313 185.4351 14.11119049652713
YAOGAN-13               
1 37941U 11072A   24154.91438906  .00026295  00000+0  59300-3 0  9994
2 37941  97.7179 137.7816 0003938  84.4040 275.7656 15.43218071594752
PLEIADES 1A             
1 38012U 11076F   24154.87993028  .00000589  00000+0  13665-3 0  9996
2 38012  98.2039 229.5409 0001064  86.6944  44.2285 14.58522614663497
ZIYUAN 1-02C (ZY 1-02C) 
1 38038U 11079A   24154.94939997  .00000673  00000+0  24268-3 0  9995
2 38038  98.4979 223.5087 0006808  21.1426  92.6742 14.36820813652273
ZIYUAN 3-1 (ZY 3-1)     
1 38046U 12001A   24154.86757410  .00014670  00000+0  48448-3 0  9997
2 38046  97.2476 217.1301 0005365 173.9506 186.1802 15.31476743688697
ARIRANG-3 (KOMPSAT-3)   
1 38338U 12025B   24154.91276817  .00000859  00000+0  17776-3 0  9994
2 38338  98.2616 101.1723 0008858 287.3709  72.6523 14.62788262642574
KANOPUS-V 1             
1 38707U 12039A   24154.77060969  .00021111  00000+0  40260-3 0  9990
2 38707  97.4963  92.7180 0004739  99.0546 261.1241 15.48178078658980
EXACTVIEW-1 (ADS-1B)    
1 38709U 12039C   24154.21395661  .00000203  00000+0  10771-3 0  9994
2 38709  98.9502 245.7911 0011442 153.9735 206.2021 14.24457722616628
SPOT 6                  
1 38755U 12047A   24154.93873977  .00000936  00000+0  21138-3 0  9996
2 38755  98.2228 221.7323 0001137  83.7165 276.4163 14.58510958624561
PLEIADES 1B             
1 39019U 12068A   24154.88940772  .00000575  00000+0  13361-3 0  9993
2 39019  98.1960 229.5877 0001242  92.3978 267.7364 14.58529666612358
GOKTURK 2               
1 39030U 12073A   24154.90668501  .00000759  00000+0  12288-3 0  9993
2 39030  97.7547  16.4353 0001068 107.9594 252.1732 14.73903735614801
LANDSAT 8               
1 39084U 13008A   24154.85297108  .00000564  00000+0  13531-3 0  9992
2 39084  98.2292 224.6308 0001269  86.2657 273.8686 14.57103297589501
SARAL                   
1 39086U 13009A   24154.90035996  .00000200  00000+0  90036-4 0  9999
2 39086  98.5510 340.2140 0001602   6.3318 353.7886 14.32421637589038
GAOFEN-1                
1 39150U 13018A   24154.89835672  .00001115  00000+0  16722-3 0  9993
2 39150  97.9894 227.4152 0021040 140.5250 219.7497 14.76442126598416
